{"type": "FeatureCollection", "features": [ {"type": "Feature", "properties": {"norad_id": 42969, "name": "SENTINEL-5P", "group": "resource", "lat": -35.73593557071984, "lon": 88.95104838812934, "alt_km": 833.6929575005306, "timestamp": "2025-12-02T15:49:06.840478+00:00", "meta": {"OBJECT_NAME": "SENTINEL-5P", "OBJECT_ID": "2017-064A", "EPOCH": "2025-12-02T06:20:42.926208", "MEAN_MOTION": 14.19513201, "ECCENTRICITY": 9.45e-05, "INCLINATION": 98.7768, "RA_OF_ASC_NODE": 274.9422, "ARG_OF_PERICENTER": 85.6365, "MEAN_ANOMALY": 274.4919, "EPHEMERIS_TYPE": 0, "CLASSIFICATION_TYPE": "U", "NORAD_CAT_ID": 42969, "ELEMENT_SET_NO": 999, "REV_AT_EPOCH": 42162, "BSTAR": 7.8063137e-05, "MEAN_MOTION_DOT": 1.2e-06, "MEAN_MOTION_DDOT": 0}, "tle": {"line1": "1 42969U 17064A   25336.26438572  .00000120  00000+0  78063-4 0  9994", "line2": "2 42969  98.7768 274.9422 0000945  85.6365 274.4919 14.19513201421626"}}, "geometry": {"type": "Point", "coordinates": [88.95104838812934, -35.73593557071984]}}, {"type": "Feature", "properties": {"norad_id": 42987, "name": "SKYSAT-C11", "group": "resource", "lat": 26.017057310576654, "lon": 110.26261553876596, "alt_km": 425.3301047503737, "timestamp": "2025-12-02T15:49:06.840489+00:00", "meta": {"OBJECT_NAME": "SKYSAT-C11", "OBJECT_ID": "2017-068A", "EPOCH": "2025-12-01T22:37:35.512032", "MEAN_MOTION": 15.46762492, "ECCENTRICITY": 9.213e-05, "INCLINATION": 97.4132, "RA_OF_ASC_NODE": 113.1733, "ARG_OF_PERICENTER": 119.4371, "MEAN_ANOMALY": 240.6971, "EPHEMERIS_TYPE": 0, "CLASSIFICATION_TYPE": "U", "NORAD_CAT_ID": 42987, "ELEMENT_SET_NO": 999, "REV_AT_EPOCH": 45264, "BSTAR": 0.00048841163, "MEAN_MOTION_DOT": 0.00024407, "MEAN_MOTION_DDOT": 0}, "tle": {"line1": "1 42987U 17068A   25335.94277213  .00024407  00000+0  48841-3 0  9999", "line2": "2 42987  97.4132 113.1733 0000921 119.4371 240.6971 15.46762492452641"}}, "geometry": {"type": "Point", "coordinates": [110.26261553876596, 26.017057310576654]}}, {"type": "Feature", "properties": {"norad_id": 42988, "name": "SKYSAT-C10", "group": "resource", "lat": -61.48999812684916, "lon": 121.37630935807574, "alt_km": 480.8968678506408, "timestamp": "2025-12-02T15:49:06.840499+00:00", "meta": {"OBJECT_NAME": "SKYSAT-C10", "OBJECT_ID": "2017-068B", "EPOCH": "2025-12-01T21:16:44.709312", "MEAN_MOTION": 15.31940843, "ECCENTRICITY": 0.00054575, "INCLINATION": 97.425, "RA_OF_ASC_NODE": 106.7102, "ARG_OF_PERICENTER": 124.6078, "MEAN_ANOMALY": 235.5679, "EPHEMERIS_TYPE": 0, "CLASSIFICATION_TYPE": "U", "NORAD_CAT_ID": 42988, "ELEMENT_SET_NO": 999, "REV_AT_EPOCH": 45213, "BSTAR": 0.00041100037, "MEAN_MOTION_DOT": 0.00012609, "MEAN_MOTION_DDOT": 0}, "tle": {"line1": "1 42988U 17068B   25335.88662858  .00012609  00000+0  41100-3 0  9998", "line2": "2 42988  97.4250 106.7102 0005457 124.6078 235.5679 15.31940843452136"}}, "geometry": {"type": "Point", "coordinates": [121.37630935807574, -61.48999812684916]}}, {"type": "Feature", "properties": {"norad_id": 42989, "name": "SKYSAT-C9", "group": "resource", "lat": 2.843225445775078, "lon": 106.46592463013548, "alt_km": 465.0964905388573, "timestamp": "2025-12-02T15:49:06.840509+00:00", "meta": {"OBJECT_NAME": "SKYSAT-C9", "OBJECT_ID": "2017-068C", "EPOCH": "2025-12-01T21:02:21.659712", "MEAN_MOTION": 15.35612414, "ECCENTRICITY": 0.00106287, "INCLINATION": 97.4179, "RA_OF_ASC_NODE": 106.0488, "ARG_OF_PERICENTER": 123.1195, "MEAN_ANOMALY": 237.1071, "EPHEMERIS_TYPE": 0, "CLASSIFICATION_TYPE": "U", "NORAD_CAT_ID": 42989, "ELEMENT_SET_NO": 999, "REV_AT_EPOCH": 45241, "BSTAR": 0.00043729142, "MEAN_MOTION_DOT": 0.00015097, "MEAN_MOTION_DDOT": 0}, "tle": {"line1": "1 42989U 17068C   25335.87663958  .00015097  00000+0  43729-3 0  9993", "line2": "2 42989  97.4179 106.0488 0010628 123.1195 237.1071 15.35612414452416"}}, "geometry": {"type": "Point", "coordinates": [106.46592463013548, 2.843225445775078]}}, {"type": "Feature", "properties": {"norad_id": 42990, "name": "SKYSAT-C8", "group": "resource", "lat": 81.71879673576825, "lon": 42.94870949392933, "alt_km": 460.07382737250646, "timestamp": "2025-12-02T15:49:06.840519+00:00", "meta": {"OBJECT_NAME": "SKYSAT-C8", "OBJECT_ID": "2017-068D", "EPOCH": "2025-12-01T22:12:22.169376", "MEAN_MOTION": 15.32546383, "ECCENTRICITY": 0.00022133, "INCLINATION": 97.427, "RA_OF_ASC_NODE": 105.8818, "ARG_OF_PERICENTER": 24.1716, "MEAN_ANOMALY": 335.9629, "EPHEMERIS_TYPE": 0, "CLASSIFICATION_TYPE": "U", "NORAD_CAT_ID": 42990, "ELEMENT_SET_NO": 999, "REV_AT_EPOCH": 45205, "BSTAR": 0.00042311963, "MEAN_MOTION_DOT": 0.00013228, "MEAN_MOTION_DDOT": 0}, "tle": {"line1": "1 42990U 17068D   25335.92525659  .00013228  00000+0  42312-3 0  9997", "line2": "2 42990  97.4270 105.8818 0002213  24.1716 335.9629 15.32546383452058"}}, "geometry": {"type": "Point", "coordinates": [42.94870949392933, 81.71879673576825]}}, {"type": "Feature", "properties": {"norad_id": 42991, "name": "SKYSAT-C7", "group": "resource", "lat": -36.59278142011167, "lon": 113.22624571479216, "alt_km": 479.4418613620019, "timestamp": "2025-12-02T15:49:06.840529+00:00", "meta": {"OBJECT_NAME": "SKYSAT-C7", "OBJECT_ID": "2017-068E", "EPOCH": "2025-12-02T03:26:19.167360", "MEAN_MOTION": 15.31962717, "ECCENTRICITY": 0.00078747, "INCLINATION": 97.4278, "RA_OF_ASC_NODE": 107.1504, "ARG_OF_PERICENTER": 90.0966, "MEAN_ANOMALY": 270.1178, "EPHEMERIS_TYPE": 0, "CLASSIFICATION_TYPE": "U", "NORAD_CAT_ID": 42991, "ELEMENT_SET_NO": 999, "REV_AT_EPOCH": 45215, "BSTAR": 0.00043051617, "MEAN_MOTION_DOT": 0.00013228, "MEAN_MOTION_DDOT": 0}, "tle": {"line1": "1 42991U 17068E   25336.14327740  .00013228  00000+0  43052-3 0  9996", "line2": "2 42991  97.4278 107.1504 0007874  90.0966 270.1178 15.31962717452153"}}, "geometry": {"type": "Point", "coordinates": [113.22624571479216, -36.59278142011167]}}, {"type": "Feature", "properties": {"norad_id": 42992, "name": "SKYSAT-C6", "group": "resource", "lat": 68.50469301494759, "lon": -52.530218573264996, "alt_km": 462.2149240944964, "timestamp": "2025-12-02T15:49:06.840539+00:00", "meta": {"OBJECT_NAME": "SKYSAT-C6", "OBJECT_ID": "2017-068F", "EPOCH": "2025-12-02T02:47:29.682528", "MEAN_MOTION": 15.31141355, "ECCENTRICITY": 0.00051269, "INCLINATION": 97.4312, "RA_OF_ASC_NODE": 107.5703, "ARG_OF_PERICENTER": 112.7982, "MEAN_ANOMALY": 247.3802, "EPHEMERIS_TYPE": 0, "CLASSIFICATION_TYPE": "U", "NORAD_CAT_ID": 42992, "ELEMENT_SET_NO": 999, "REV_AT_EPOCH": 45213, "BSTAR": 0.00044335464, "MEAN_MOTION_DOT": 0.00013273, "MEAN_MOTION_DDOT": 0}, "tle": {"line1": "1 42992U 17068F   25336.11631577  .00013273  00000+0  44335-3 0  9995", "line2": "2 42992  97.4312 107.5703 0005126 112.7982 247.3802 15.31141355452131"}}, "geometry": {"type": "Point", "coordinates": [-52.530218573264996, 68.50469301494759]}}, {"type": "Feature", "properties": {"norad_id": 43111, "name": "CARTOSAT-2F", "group": "resource", "lat": -64.29576817080537, "lon": 50.196028170229, "alt_km": 515.2690131264671, "timestamp": "2025-12-02T15:49:06.840549+00:00", "meta": {"OBJECT_NAME": "CARTOSAT-2F", "OBJECT_ID": "2018-004A", "EPOCH": "2025-12-01T21:08:16.196064", "MEAN_MOTION": 15.19324266, "ECCENTRICITY": 9.074e-05, "INCLINATION": 97.4331, "RA_OF_ASC_NODE": 33.6929, "ARG_OF_PERICENTER": 193.2914, "MEAN_ANOMALY": 166.8297, "EPHEMERIS_TYPE": 0, "CLASSIFICATION_TYPE": "U", "NORAD_CAT_ID": 43111, "ELEMENT_SET_NO": 999, "REV_AT_EPOCH": 43737, "BSTAR": 6.1441308e-05, "MEAN_MOTION_DOT": 1.23e-05, "MEAN_MOTION_DDOT": 0}, "tle": {"line1": "1 43111U 18004A   25335.88074301  .00001230  00000+0  61441-4 0  9997", "line2": "2 43111  97.4331  33.6929 0000907 193.2914 166.8297 15.19324266437378"}}, "geometry": {"type": "Point", "coordinates": [50.196028170229, -64.29576817080537]}}, {"type": "Feature", "properties": {"norad_id": 43259, "name": "GAOFEN-1 02", "group": "resource", "lat": 9.077925983705263, "lon": -144.25516757855152, "alt_km": 642.3695320219531, "timestamp": "2025-12-02T15:49:06.840562+00:00", "meta": {"OBJECT_NAME": "GAOFEN-1 02", "OBJECT_ID": "2018-031A", "EPOCH": "2025-12-02T06:54:54.514944", "MEAN_MOTION": 14.76444412, "ECCENTRICITY": 0.00012808, "INCLINATION": 98.0821, "RA_OF_ASC_NODE": 34.0727, "ARG_OF_PERICENTER": 265.0977, "MEAN_ANOMALY": 95.0086, "EPHEMERIS_TYPE": 0, "CLASSIFICATION_TYPE": "U", "NORAD_CAT_ID": 43259, "ELEMENT_SET_NO": 999, "REV_AT_EPOCH": 41364, "BSTAR": 0.00019207615, "MEAN_MOTION_DOT": 1.284e-05, "MEAN_MOTION_DDOT": 0}, "tle": {"line1": "1 43259U 18031A   25336.28813096  .00001284  00000+0  19208-3 0  9999", "line2": "2 43259  98.0821  34.0727 0001280 265.0977  95.0086 14.76444412413646"}}, "geometry": {"type": "Point", "coordinates": [-144.25516757855152, 9.077925983705263]}}, {"type": "Feature", "properties": {"norad_id": 43260, "name": "GAOFEN-1 03", "group": "resource", "lat": -71.01238613000677, "lon": 58.71110054002757, "alt_km": 647.4625225370391, "timestamp": "2025-12-02T15:49:06.840572+00:00", "meta": {"OBJECT_NAME": "GAOFEN-1 03", "OBJECT_ID": "2018-031B", "EPOCH": "2025-12-02T08:00:53.212608", "MEAN_MOTION": 14.76401264, "ECCENTRICITY": 0.00027058, "INCLINATION": 98.0813, "RA_OF_ASC_NODE": 33.9968, "ARG_OF_PERICENTER": 2.1589, "MEAN_ANOMALY": 357.9632, "EPHEMERIS_TYPE": 0, "CLASSIFICATION_TYPE": "U", "NORAD_CAT_ID": 43260, "ELEMENT_SET_NO": 999, "REV_AT_EPOCH": 41364, "BSTAR": 0.00019940748, "MEAN_MOTION_DOT": 1.334e-05, "MEAN_MOTION_DDOT": 0}, "tle": {"line1": "1 43260U 18031B   25336.33394922  .00001334  00000+0  19941-3 0  9999", "line2": "2 43260  98.0813  33.9968 0002705   2.1589 357.9632 14.76401264413641"}}, "geometry": {"type": "Point", "coordinates": [58.71110054002757, -71.01238613000677]}}]}